{
    "type": "FeatureCollection",
    "features": [
        {
            "type": "Feature",
            "properties": {},
            "geometry": {
                "type": "LineString",
                "coordinates": [
                    [
                        139.270863,
                        35.632549
                    ],
                    [
                        139.270989,
                        35.632726
                    ],
                    [
                        139.271048,
                        35.632931
                    ],
                    [
                        139.271082,
                        35.633245
                    ],
                    [
                        139.271022,
                        35.633528
                    ],
                    [
                        139.270924,
                        35.633801
                    ],
                    [
                        139.270689,
                        35.634438
                    ],
                    [
                        139.270571,
                        35.63478
                    ],
                    [
                        139.270472,
                        35.635133
                    ]
                ]
            },
            "id": 1
        },
        {
            "type": "Feature",
            "properties": {},
            "geometry": {
                "type": "LineString",
                "coordinates": [
                    [
                        139.270472,
                        35.635133
                    ],
                    [
                        139.270448,
                        35.635274
                    ],
                    [
                        139.270439,
                        35.635411
                    ],
                    [
                        139.270437,
                        35.635692
                    ],
                    [
                        139.270449,
                        35.635989
                    ],
                    [
                        139.270491,
                        35.63627
                    ],
                    [
                        139.27052,
                        35.636403
                    ],
                    [
                        139.270559,
                        35.636537
                    ],
                    [
                        139.270695,
                        35.636797
                    ],
                    [
                        139.270842,
                        35.637086
                    ],
                    [
                        139.27096,
                        35.637382
                    ]
                ]
            },
            "id": 2
        },
        {
            "type": "Feature",
            "properties": {},
            "geometry": {
                "type": "LineString",
                "coordinates": [
                    [
                        139.27096,
                        35.637382
                    ],
                    [
                        139.271166,
                        35.63798
                    ],
                    [
                        139.271281,
                        35.638604
                    ],
                    [
                        139.271316,
                        35.638775
                    ],
                    [
                        139.271336,
                        35.638859
                    ],
                    [
                        139.271397,
                        35.638943
                    ],
                    [
                        139.271795,
                        35.639394
                    ],
                    [
                        139.27111,
                        35.639637
                    ],
                    [
                        139.271002,
                        35.639767
                    ],
                    [
                        139.270882,
                        35.639819
                    ],
                    [
                        139.270539,
                        35.639897
                    ]
                ]
            },
            "id": 3
        },
        {
            "type": "Feature",
            "properties": {},
            "geometry": {
                "type": "LineString",
                "coordinates": [
                    [
                        139.270539,
                        35.639897
                    ],
                    [
                        139.270423,
                        35.640664
                    ],
                    [
                        139.27009,
                        35.64073
                    ]
                ]
            },
            "id": 4
        }
    ]
}
